PTD-R (TYVAK-0127)      
1 60523U 24149BH  26068.81355855  .00144621  00000+0  12021-2 0  9993
2 60523  97.3759 162.0693 0004267 248.5856 111.4951 15.69700541 87692
STARLINK-11363 [DTC]    
1 62012U 24213E   26068.35658608  .00142910  00000+0  11620-2 0  9994
2 62012  53.1571  42.8483 0001510  61.0784 299.0385 15.69756059 74861
