[{"OBJECT_NAME":"PTD-R (TYVAK-0127)","OBJECT_ID":"2024-149BH","EPOCH":"2026-03-09T19:31:31.459584","MEAN_MOTION":15.69700541,"ECCENTRICITY":0.00042667,"INCLINATION":97.3759,"RA_OF_ASC_NODE":162.0693,"ARG_OF_PERICENTER":248.5856,"MEAN_ANOMALY":111.4951,"EPHEMERIS_TYPE":0,"CLASSIFICATION_TYPE":"U","NORAD_CAT_ID":60523,"ELEMENT_SET_NO":999,"REV_AT_EPOCH":8769,"BSTAR":0.0012020526,"MEAN_MOTION_DOT":0.00144621,"MEAN_MOTION_DDOT":0},{"OBJECT_NAME":"STARLINK-11363 [DTC]","OBJECT_ID":"2024-213E","EPOCH":"2026-03-09T08:33:29.037312","MEAN_MOTION":15.69756059,"ECCENTRICITY":0.00015101,"INCLINATION":53.1571,"RA_OF_ASC_NODE":42.8483,"ARG_OF_PERICENTER":61.0784,"MEAN_ANOMALY":299.0385,"EPHEMERIS_TYPE":0,"CLASSIFICATION_TYPE":"U","NORAD_CAT_ID":62012,"ELEMENT_SET_NO":999,"REV_AT_EPOCH":7486,"BSTAR":0.0011620051,"MEAN_MOTION_DOT":0.0014291,"MEAN_MOTION_DDOT":0}]
